<?xml version="1.0" encoding="UTF-8"?>
<gpx version="1.1" creator="pgk-lectures-training"
     xmlns="http://www.topografix.com/GPX/1/1">
  <metadata><name>Бузулукский бор</name></metadata>
  <trk>
    <name>Бузулукский бор</name>
    <trkseg>
      <trkpt lat="52.780060" lon="52.240060">
        <ele>78</ele>
        <time>2024-04-20T10:30:00Z</time>
        <extensions><cadence>113</cadence></extensions>
      </trkpt>
      <trkpt lat="52.780637" lon="52.240572">
        <ele>82</ele>
        <time>2024-04-20T10:36:00Z</time>
        <extensions><cadence>112</cadence></extensions>
      </trkpt>
      <trkpt lat="52.781194" lon="52.241099">
        <ele>86</ele>
        <time>2024-04-20T10:42:00Z</time>
        <extensions><cadence>110</cadence></extensions>
      </trkpt>
      <trkpt lat="52.781715" lon="52.241649">
        <ele>89</ele>
        <time>2024-04-20T10:48:00Z</time>
        <extensions><cadence>108</cadence></extensions>
      </trkpt>
      <trkpt lat="52.782193" lon="52.242231">
        <ele>91</ele>
        <time>2024-04-20T10:54:00Z</time>
        <extensions><cadence>106</cadence></extensions>
      </trkpt>
      <trkpt lat="52.782628" lon="52.242842">
        <ele>91</ele>
        <time>2024-04-20T11:00:00Z</time>
        <extensions><cadence>104</cadence></extensions>
      </trkpt>
      <trkpt lat="52.783029" lon="52.243478">
        <ele>91</ele>
        <time>2024-04-20T11:06:00Z</time>
        <extensions><cadence>103</cadence></extensions>
      </trkpt>
      <trkpt lat="52.783411" lon="52.244126">
        <ele>90</ele>
        <time>2024-04-20T11:12:00Z</time>
        <extensions><cadence>102</cadence></extensions>
      </trkpt>
      <trkpt lat="52.783796" lon="52.244773">
        <ele>90</ele>
        <time>2024-04-20T11:18:00Z</time>
        <extensions><cadence>102</cadence></extensions>
      </trkpt>
      <trkpt lat="52.784201" lon="52.245405">
        <ele>91</ele>
        <time>2024-04-20T11:24:00Z</time>
        <extensions><cadence>103</cadence></extensions>
      </trkpt>
      <trkpt lat="52.784643" lon="52.246012">
        <ele>93</ele>
        <time>2024-04-20T11:30:00Z</time>
        <extensions><cadence>104</cadence></extensions>
      </trkpt>
      <trkpt lat="52.785129" lon="52.246588">
        <ele>96</ele>
        <time>2024-04-20T11:36:00Z</time>
        <extensions><cadence>104</cadence></extensions>
      </trkpt>
      <trkpt lat="52.785658" lon="52.247133">
        <ele>101</ele>
        <time>2024-04-20T11:42:00Z</time>
        <extensions><cadence>104</cadence></extensions>
      </trkpt>
      <trkpt lat="52.786220" lon="52.247656">
        <ele>105</ele>
        <time>2024-04-20T11:48:00Z</time>
        <extensions><cadence>104</cadence></extensions>
      </trkpt>
      <trkpt lat="52.786798" lon="52.248168">
        <ele>109</ele>
        <time>2024-04-20T11:54:00Z</time>
        <extensions><cadence>102</cadence></extensions>
      </trkpt>
    </trkseg>
  </trk>
</gpx>
