<?xml version="1.0" encoding="UTF-8"?>
<gpx version="1.1" creator="pgk-lectures-training"
     xmlns="http://www.topografix.com/GPX/1/1">
  <metadata><name>Кинельский маршрут</name></metadata>
  <trk>
    <name>Кинельский маршрут</name>
    <trkseg>
      <trkpt lat="53.223030" lon="50.625030">
        <ele>47</ele>
        <time>2024-04-20T07:30:00Z</time>
        <extensions><cadence>117</cadence></extensions>
      </trkpt>
      <trkpt lat="53.223607" lon="50.625542">
        <ele>51</ele>
        <time>2024-04-20T07:36:00Z</time>
        <extensions><cadence>116</cadence></extensions>
      </trkpt>
      <trkpt lat="53.224164" lon="50.626069">
        <ele>54</ele>
        <time>2024-04-20T07:42:00Z</time>
        <extensions><cadence>114</cadence></extensions>
      </trkpt>
      <trkpt lat="53.224685" lon="50.626619">
        <ele>56</ele>
        <time>2024-04-20T07:48:00Z</time>
        <extensions><cadence>112</cadence></extensions>
      </trkpt>
      <trkpt lat="53.225163" lon="50.627201">
        <ele>58</ele>
        <time>2024-04-20T07:54:00Z</time>
        <extensions><cadence>110</cadence></extensions>
      </trkpt>
      <trkpt lat="53.225598" lon="50.627812">
        <ele>57</ele>
        <time>2024-04-20T08:00:00Z</time>
        <extensions><cadence>108</cadence></extensions>
      </trkpt>
      <trkpt lat="53.225999" lon="50.628448">
        <ele>57</ele>
        <time>2024-04-20T08:06:00Z</time>
        <extensions><cadence>107</cadence></extensions>
      </trkpt>
      <trkpt lat="53.226381" lon="50.629096">
        <ele>56</ele>
        <time>2024-04-20T08:12:00Z</time>
        <extensions><cadence>106</cadence></extensions>
      </trkpt>
      <trkpt lat="53.226766" lon="50.629743">
        <ele>55</ele>
        <time>2024-04-20T08:18:00Z</time>
        <extensions><cadence>106</cadence></extensions>
      </trkpt>
      <trkpt lat="53.227171" lon="50.630375">
        <ele>56</ele>
        <time>2024-04-20T08:24:00Z</time>
        <extensions><cadence>107</cadence></extensions>
      </trkpt>
      <trkpt lat="53.227613" lon="50.630982">
        <ele>57</ele>
        <time>2024-04-20T08:30:00Z</time>
        <extensions><cadence>108</cadence></extensions>
      </trkpt>
      <trkpt lat="53.228099" lon="50.631558">
        <ele>60</ele>
        <time>2024-04-20T08:36:00Z</time>
        <extensions><cadence>108</cadence></extensions>
      </trkpt>
      <trkpt lat="53.228628" lon="50.632103">
        <ele>64</ele>
        <time>2024-04-20T08:42:00Z</time>
        <extensions><cadence>108</cadence></extensions>
      </trkpt>
      <trkpt lat="53.229190" lon="50.632626">
        <ele>68</ele>
        <time>2024-04-20T08:48:00Z</time>
        <extensions><cadence>108</cadence></extensions>
      </trkpt>
      <trkpt lat="53.229768" lon="50.633138">
        <ele>71</ele>
        <time>2024-04-20T08:54:00Z</time>
        <extensions><cadence>106</cadence></extensions>
      </trkpt>
    </trkseg>
  </trk>
</gpx>
