<?xml version="1.0" encoding="UTF-8"?>
<gpx version="1.1" creator="pgk-lectures-training"
     xmlns="http://www.topografix.com/GPX/1/1">
  <metadata><name>Ульяновская Волга</name></metadata>
  <trk>
    <name>Ульяновская Волга</name>
    <trkseg>
      <trkpt lat="54.300190" lon="48.320190">
        <ele>104</ele>
        <time>2025-08-15T06:30:00Z</time>
        <extensions><cadence>122</cadence></extensions>
      </trkpt>
      <trkpt lat="54.300767" lon="48.320702">
        <ele>108</ele>
        <time>2025-08-15T06:36:00Z</time>
        <extensions><cadence>121</cadence></extensions>
      </trkpt>
      <trkpt lat="54.301324" lon="48.321229">
        <ele>111</ele>
        <time>2025-08-15T06:42:00Z</time>
        <extensions><cadence>119</cadence></extensions>
      </trkpt>
      <trkpt lat="54.301845" lon="48.321779">
        <ele>113</ele>
        <time>2025-08-15T06:48:00Z</time>
        <extensions><cadence>117</cadence></extensions>
      </trkpt>
      <trkpt lat="54.302323" lon="48.322361">
        <ele>115</ele>
        <time>2025-08-15T06:54:00Z</time>
        <extensions><cadence>115</cadence></extensions>
      </trkpt>
      <trkpt lat="54.302758" lon="48.322972">
        <ele>114</ele>
        <time>2025-08-15T07:00:00Z</time>
        <extensions><cadence>113</cadence></extensions>
      </trkpt>
      <trkpt lat="54.303159" lon="48.323608">
        <ele>114</ele>
        <time>2025-08-15T07:06:00Z</time>
        <extensions><cadence>112</cadence></extensions>
      </trkpt>
      <trkpt lat="54.303541" lon="48.324256">
        <ele>113</ele>
        <time>2025-08-15T07:12:00Z</time>
        <extensions><cadence>111</cadence></extensions>
      </trkpt>
      <trkpt lat="54.303926" lon="48.324903">
        <ele>112</ele>
        <time>2025-08-15T07:18:00Z</time>
        <extensions><cadence>111</cadence></extensions>
      </trkpt>
      <trkpt lat="54.304331" lon="48.325535">
        <ele>113</ele>
        <time>2025-08-15T07:24:00Z</time>
        <extensions><cadence>112</cadence></extensions>
      </trkpt>
      <trkpt lat="54.304773" lon="48.326142">
        <ele>114</ele>
        <time>2025-08-15T07:30:00Z</time>
        <extensions><cadence>113</cadence></extensions>
      </trkpt>
      <trkpt lat="54.305259" lon="48.326718">
        <ele>117</ele>
        <time>2025-08-15T07:36:00Z</time>
        <extensions><cadence>113</cadence></extensions>
      </trkpt>
      <trkpt lat="54.305788" lon="48.327263">
        <ele>121</ele>
        <time>2025-08-15T07:42:00Z</time>
        <extensions><cadence>113</cadence></extensions>
      </trkpt>
      <trkpt lat="54.306350" lon="48.327786">
        <ele>125</ele>
        <time>2025-08-15T07:48:00Z</time>
        <extensions><cadence>113</cadence></extensions>
      </trkpt>
      <trkpt lat="54.306928" lon="48.328298">
        <ele>128</ele>
        <time>2025-08-15T07:54:00Z</time>
        <extensions><cadence>111</cadence></extensions>
      </trkpt>
    </trkseg>
  </trk>
</gpx>
