<?xml version="1.0" encoding="UTF-8"?>
<gpx version="1.1" creator="pgk-lectures-training"
     xmlns="http://www.topografix.com/GPX/1/1">
  <metadata><name>Бузулукский бор</name></metadata>
  <trk>
    <name>Бузулукский бор</name>
    <trkseg>
      <trkpt lat="52.780110" lon="52.240110">
        <ele>78</ele>
        <time>2024-10-20T07:00:00Z</time>
        <extensions><cadence>111</cadence></extensions>
      </trkpt>
      <trkpt lat="52.780687" lon="52.240622">
        <ele>82</ele>
        <time>2024-10-20T07:06:00Z</time>
        <extensions><cadence>110</cadence></extensions>
      </trkpt>
      <trkpt lat="52.781244" lon="52.241149">
        <ele>86</ele>
        <time>2024-10-20T07:12:00Z</time>
        <extensions><cadence>108</cadence></extensions>
      </trkpt>
      <trkpt lat="52.781765" lon="52.241699">
        <ele>89</ele>
        <time>2024-10-20T07:18:00Z</time>
        <extensions><cadence>106</cadence></extensions>
      </trkpt>
      <trkpt lat="52.782243" lon="52.242281">
        <ele>91</ele>
        <time>2024-10-20T07:24:00Z</time>
        <extensions><cadence>104</cadence></extensions>
      </trkpt>
      <trkpt lat="52.782678" lon="52.242892">
        <ele>91</ele>
        <time>2024-10-20T07:30:00Z</time>
        <extensions><cadence>102</cadence></extensions>
      </trkpt>
      <trkpt lat="52.783079" lon="52.243528">
        <ele>91</ele>
        <time>2024-10-20T07:36:00Z</time>
        <extensions><cadence>101</cadence></extensions>
      </trkpt>
      <trkpt lat="52.783461" lon="52.244176">
        <ele>90</ele>
        <time>2024-10-20T07:42:00Z</time>
        <extensions><cadence>100</cadence></extensions>
      </trkpt>
      <trkpt lat="52.783846" lon="52.244823">
        <ele>90</ele>
        <time>2024-10-20T07:48:00Z</time>
        <extensions><cadence>100</cadence></extensions>
      </trkpt>
      <trkpt lat="52.784251" lon="52.245455">
        <ele>91</ele>
        <time>2024-10-20T07:54:00Z</time>
        <extensions><cadence>101</cadence></extensions>
      </trkpt>
      <trkpt lat="52.784693" lon="52.246062">
        <ele>93</ele>
        <time>2024-10-20T08:00:00Z</time>
        <extensions><cadence>102</cadence></extensions>
      </trkpt>
      <trkpt lat="52.785179" lon="52.246638">
        <ele>96</ele>
        <time>2024-10-20T08:06:00Z</time>
        <extensions><cadence>102</cadence></extensions>
      </trkpt>
      <trkpt lat="52.785708" lon="52.247183">
        <ele>101</ele>
        <time>2024-10-20T08:12:00Z</time>
        <extensions><cadence>102</cadence></extensions>
      </trkpt>
      <trkpt lat="52.786270" lon="52.247706">
        <ele>105</ele>
        <time>2024-10-20T08:18:00Z</time>
        <extensions><cadence>102</cadence></extensions>
      </trkpt>
      <trkpt lat="52.786848" lon="52.248218">
        <ele>109</ele>
        <time>2024-10-20T08:24:00Z</time>
        <extensions><cadence>100</cadence></extensions>
      </trkpt>
    </trkseg>
  </trk>
</gpx>
