<?xml version="1.0" encoding="UTF-8"?>
<gpx version="1.1" creator="pgk-lectures-training"
     xmlns="http://www.topografix.com/GPX/1/1">
  <metadata><name>Кинельский маршрут</name></metadata>
  <trk>
    <name>Кинельский маршрут</name>
    <trkseg>
      <trkpt lat="53.223080" lon="50.625080">
        <ele>47</ele>
        <time>2024-10-20T07:00:00Z</time>
        <extensions><cadence>115</cadence></extensions>
      </trkpt>
      <trkpt lat="53.223657" lon="50.625592">
        <ele>51</ele>
        <time>2024-10-20T07:06:00Z</time>
        <extensions><cadence>114</cadence></extensions>
      </trkpt>
      <trkpt lat="53.224214" lon="50.626119">
        <ele>54</ele>
        <time>2024-10-20T07:12:00Z</time>
        <extensions><cadence>112</cadence></extensions>
      </trkpt>
      <trkpt lat="53.224735" lon="50.626669">
        <ele>56</ele>
        <time>2024-10-20T07:18:00Z</time>
        <extensions><cadence>110</cadence></extensions>
      </trkpt>
      <trkpt lat="53.225213" lon="50.627251">
        <ele>58</ele>
        <time>2024-10-20T07:24:00Z</time>
        <extensions><cadence>108</cadence></extensions>
      </trkpt>
      <trkpt lat="53.225648" lon="50.627862">
        <ele>57</ele>
        <time>2024-10-20T07:30:00Z</time>
        <extensions><cadence>106</cadence></extensions>
      </trkpt>
      <trkpt lat="53.226049" lon="50.628498">
        <ele>57</ele>
        <time>2024-10-20T07:36:00Z</time>
        <extensions><cadence>105</cadence></extensions>
      </trkpt>
      <trkpt lat="53.226431" lon="50.629146">
        <ele>56</ele>
        <time>2024-10-20T07:42:00Z</time>
        <extensions><cadence>104</cadence></extensions>
      </trkpt>
      <trkpt lat="53.226816" lon="50.629793">
        <ele>55</ele>
        <time>2024-10-20T07:48:00Z</time>
        <extensions><cadence>104</cadence></extensions>
      </trkpt>
      <trkpt lat="53.227221" lon="50.630425">
        <ele>56</ele>
        <time>2024-10-20T07:54:00Z</time>
        <extensions><cadence>105</cadence></extensions>
      </trkpt>
      <trkpt lat="53.227663" lon="50.631032">
        <ele>57</ele>
        <time>2024-10-20T08:00:00Z</time>
        <extensions><cadence>106</cadence></extensions>
      </trkpt>
      <trkpt lat="53.228149" lon="50.631608">
        <ele>60</ele>
        <time>2024-10-20T08:06:00Z</time>
        <extensions><cadence>106</cadence></extensions>
      </trkpt>
      <trkpt lat="53.228678" lon="50.632153">
        <ele>64</ele>
        <time>2024-10-20T08:12:00Z</time>
        <extensions><cadence>106</cadence></extensions>
      </trkpt>
      <trkpt lat="53.229240" lon="50.632676">
        <ele>68</ele>
        <time>2024-10-20T08:18:00Z</time>
        <extensions><cadence>106</cadence></extensions>
      </trkpt>
      <trkpt lat="53.229818" lon="50.633188">
        <ele>71</ele>
        <time>2024-10-20T08:24:00Z</time>
        <extensions><cadence>104</cadence></extensions>
      </trkpt>
    </trkseg>
  </trk>
</gpx>
