<?xml version="1.0" encoding="UTF-8"?>
<gpx version="1.1" creator="pgk-lectures-training"
     xmlns="http://www.topografix.com/GPX/1/1">
  <metadata><name>Бузулукский бор</name></metadata>
  <trk>
    <name>Бузулукский бор</name>
    <trkseg>
      <trkpt lat="52.779960" lon="52.239960">
        <ele>78</ele>
        <time>2024-01-20T08:00:00Z</time>
        <extensions><cadence>105</cadence></extensions>
      </trkpt>
      <trkpt lat="52.780537" lon="52.240472">
        <ele>82</ele>
        <time>2024-01-20T08:06:00Z</time>
        <extensions><cadence>104</cadence></extensions>
      </trkpt>
      <trkpt lat="52.781094" lon="52.240999">
        <ele>86</ele>
        <time>2024-01-20T08:12:00Z</time>
        <extensions><cadence>102</cadence></extensions>
      </trkpt>
      <trkpt lat="52.781615" lon="52.241549">
        <ele>89</ele>
        <time>2024-01-20T08:18:00Z</time>
        <extensions><cadence>100</cadence></extensions>
      </trkpt>
      <trkpt lat="52.782093" lon="52.242131">
        <ele>91</ele>
        <time>2024-01-20T08:24:00Z</time>
        <extensions><cadence>98</cadence></extensions>
      </trkpt>
      <trkpt lat="52.782528" lon="52.242742">
        <ele>91</ele>
        <time>2024-01-20T08:30:00Z</time>
        <extensions><cadence>96</cadence></extensions>
      </trkpt>
      <trkpt lat="52.782929" lon="52.243378">
        <ele>91</ele>
        <time>2024-01-20T08:36:00Z</time>
        <extensions><cadence>95</cadence></extensions>
      </trkpt>
      <trkpt lat="52.783311" lon="52.244026">
        <ele>90</ele>
        <time>2024-01-20T08:42:00Z</time>
        <extensions><cadence>94</cadence></extensions>
      </trkpt>
      <trkpt lat="52.783696" lon="52.244673">
        <ele>90</ele>
        <time>2024-01-20T08:48:00Z</time>
        <extensions><cadence>94</cadence></extensions>
      </trkpt>
      <trkpt lat="52.784101" lon="52.245305">
        <ele>91</ele>
        <time>2024-01-20T08:54:00Z</time>
        <extensions><cadence>95</cadence></extensions>
      </trkpt>
      <trkpt lat="52.784543" lon="52.245912">
        <ele>93</ele>
        <time>2024-01-20T09:00:00Z</time>
        <extensions><cadence>96</cadence></extensions>
      </trkpt>
      <trkpt lat="52.785029" lon="52.246488">
        <ele>96</ele>
        <time>2024-01-20T09:06:00Z</time>
        <extensions><cadence>96</cadence></extensions>
      </trkpt>
      <trkpt lat="52.785558" lon="52.247033">
        <ele>101</ele>
        <time>2024-01-20T09:12:00Z</time>
        <extensions><cadence>96</cadence></extensions>
      </trkpt>
      <trkpt lat="52.786120" lon="52.247556">
        <ele>105</ele>
        <time>2024-01-20T09:18:00Z</time>
        <extensions><cadence>96</cadence></extensions>
      </trkpt>
      <trkpt lat="52.786698" lon="52.248068">
        <ele>109</ele>
        <time>2024-01-20T09:24:00Z</time>
        <extensions><cadence>94</cadence></extensions>
      </trkpt>
    </trkseg>
  </trk>
</gpx>
