<?xml version="1.0" encoding="UTF-8"?>
<gpx version="1.1" creator="pgk-lectures-training"
     xmlns="http://www.topografix.com/GPX/1/1">
  <metadata><name>Ульяновская Волга</name></metadata>
  <trk>
    <name>Ульяновская Волга</name>
    <trkseg>
      <trkpt lat="54.300090" lon="48.320090">
        <ele>104</ele>
        <time>2025-05-15T12:30:00Z</time>
        <extensions><cadence>115</cadence></extensions>
      </trkpt>
      <trkpt lat="54.300667" lon="48.320602">
        <ele>108</ele>
        <time>2025-05-15T12:36:00Z</time>
        <extensions><cadence>114</cadence></extensions>
      </trkpt>
      <trkpt lat="54.301224" lon="48.321129">
        <ele>111</ele>
        <time>2025-05-15T12:42:00Z</time>
        <extensions><cadence>112</cadence></extensions>
      </trkpt>
      <trkpt lat="54.301745" lon="48.321679">
        <ele>113</ele>
        <time>2025-05-15T12:48:00Z</time>
        <extensions><cadence>110</cadence></extensions>
      </trkpt>
      <trkpt lat="54.302223" lon="48.322261">
        <ele>115</ele>
        <time>2025-05-15T12:54:00Z</time>
        <extensions><cadence>108</cadence></extensions>
      </trkpt>
      <trkpt lat="54.302658" lon="48.322872">
        <ele>114</ele>
        <time>2025-05-15T13:00:00Z</time>
        <extensions><cadence>106</cadence></extensions>
      </trkpt>
      <trkpt lat="54.303059" lon="48.323508">
        <ele>114</ele>
        <time>2025-05-15T13:06:00Z</time>
        <extensions><cadence>105</cadence></extensions>
      </trkpt>
      <trkpt lat="54.303441" lon="48.324156">
        <ele>113</ele>
        <time>2025-05-15T13:12:00Z</time>
        <extensions><cadence>104</cadence></extensions>
      </trkpt>
      <trkpt lat="54.303826" lon="48.324803">
        <ele>112</ele>
        <time>2025-05-15T13:18:00Z</time>
        <extensions><cadence>104</cadence></extensions>
      </trkpt>
      <trkpt lat="54.304231" lon="48.325435">
        <ele>113</ele>
        <time>2025-05-15T13:24:00Z</time>
        <extensions><cadence>105</cadence></extensions>
      </trkpt>
      <trkpt lat="54.304673" lon="48.326042">
        <ele>114</ele>
        <time>2025-05-15T13:30:00Z</time>
        <extensions><cadence>106</cadence></extensions>
      </trkpt>
      <trkpt lat="54.305159" lon="48.326618">
        <ele>117</ele>
        <time>2025-05-15T13:36:00Z</time>
        <extensions><cadence>106</cadence></extensions>
      </trkpt>
      <trkpt lat="54.305688" lon="48.327163">
        <ele>121</ele>
        <time>2025-05-15T13:42:00Z</time>
        <extensions><cadence>106</cadence></extensions>
      </trkpt>
      <trkpt lat="54.306250" lon="48.327686">
        <ele>125</ele>
        <time>2025-05-15T13:48:00Z</time>
        <extensions><cadence>106</cadence></extensions>
      </trkpt>
      <trkpt lat="54.306828" lon="48.328198">
        <ele>128</ele>
        <time>2025-05-15T13:54:00Z</time>
        <extensions><cadence>104</cadence></extensions>
      </trkpt>
    </trkseg>
  </trk>
</gpx>
