<?xml version="1.0" encoding="UTF-8"?>
<gpx version="1.1" creator="pgk-lectures-training"
     xmlns="http://www.topografix.com/GPX/1/1">
  <metadata><name>Казанское Поволжье</name></metadata>
  <trk>
    <name>Казанское Поволжье</name>
    <trkseg>
      <trkpt lat="55.790170" lon="49.120170">
        <ele>70</ele>
        <time>2025-11-25T07:00:00Z</time>
        <extensions><cadence>117</cadence></extensions>
      </trkpt>
      <trkpt lat="55.790747" lon="49.120682">
        <ele>74</ele>
        <time>2025-11-25T07:06:00Z</time>
        <extensions><cadence>116</cadence></extensions>
      </trkpt>
      <trkpt lat="55.791304" lon="49.121209">
        <ele>77</ele>
        <time>2025-11-25T07:12:00Z</time>
        <extensions><cadence>114</cadence></extensions>
      </trkpt>
      <trkpt lat="55.791825" lon="49.121759">
        <ele>79</ele>
        <time>2025-11-25T07:18:00Z</time>
        <extensions><cadence>112</cadence></extensions>
      </trkpt>
      <trkpt lat="55.792303" lon="49.122341">
        <ele>81</ele>
        <time>2025-11-25T07:24:00Z</time>
        <extensions><cadence>110</cadence></extensions>
      </trkpt>
      <trkpt lat="55.792738" lon="49.122952">
        <ele>80</ele>
        <time>2025-11-25T07:30:00Z</time>
        <extensions><cadence>108</cadence></extensions>
      </trkpt>
      <trkpt lat="55.793139" lon="49.123588">
        <ele>80</ele>
        <time>2025-11-25T07:36:00Z</time>
        <extensions><cadence>107</cadence></extensions>
      </trkpt>
      <trkpt lat="55.793521" lon="49.124236">
        <ele>79</ele>
        <time>2025-11-25T07:42:00Z</time>
        <extensions><cadence>106</cadence></extensions>
      </trkpt>
      <trkpt lat="55.793906" lon="49.124883">
        <ele>78</ele>
        <time>2025-11-25T07:48:00Z</time>
        <extensions><cadence>106</cadence></extensions>
      </trkpt>
      <trkpt lat="55.794311" lon="49.125515">
        <ele>79</ele>
        <time>2025-11-25T07:54:00Z</time>
        <extensions><cadence>107</cadence></extensions>
      </trkpt>
      <trkpt lat="55.794753" lon="49.126122">
        <ele>80</ele>
        <time>2025-11-25T08:00:00Z</time>
        <extensions><cadence>108</cadence></extensions>
      </trkpt>
      <trkpt lat="55.795239" lon="49.126698">
        <ele>83</ele>
        <time>2025-11-25T08:06:00Z</time>
        <extensions><cadence>108</cadence></extensions>
      </trkpt>
      <trkpt lat="55.795768" lon="49.127243">
        <ele>87</ele>
        <time>2025-11-25T08:12:00Z</time>
        <extensions><cadence>108</cadence></extensions>
      </trkpt>
      <trkpt lat="55.796330" lon="49.127766">
        <ele>91</ele>
        <time>2025-11-25T08:18:00Z</time>
        <extensions><cadence>108</cadence></extensions>
      </trkpt>
      <trkpt lat="55.796908" lon="49.128278">
        <ele>94</ele>
        <time>2025-11-25T08:24:00Z</time>
        <extensions><cadence>106</cadence></extensions>
      </trkpt>
    </trkseg>
  </trk>
</gpx>
