<?xml version="1.0" encoding="UTF-8"?>
<gpx version="1.1" creator="pgk-lectures-training"
     xmlns="http://www.topografix.com/GPX/1/1">
  <metadata><name>Самарская Лука</name></metadata>
  <trk>
    <name>Самарская Лука</name>
    <trkseg>
      <trkpt lat="53.402100" lon="49.926200">
        <ele>125</ele>
        <time>2024-04-20T07:30:00Z</time>
        <extensions><cadence>109</cadence></extensions>
      </trkpt>
      <trkpt lat="53.402677" lon="49.926712">
        <ele>132</ele>
        <time>2024-04-20T07:36:00Z</time>
        <extensions><cadence>108</cadence></extensions>
      </trkpt>
      <trkpt lat="53.403234" lon="49.927239">
        <ele>139</ele>
        <time>2024-04-20T07:42:00Z</time>
        <extensions><cadence>106</cadence></extensions>
      </trkpt>
      <trkpt lat="53.403755" lon="49.927789">
        <ele>145</ele>
        <time>2024-04-20T07:48:00Z</time>
        <extensions><cadence>104</cadence></extensions>
      </trkpt>
      <trkpt lat="53.404233" lon="49.928371">
        <ele>150</ele>
        <time>2024-04-20T07:54:00Z</time>
        <extensions><cadence>102</cadence></extensions>
      </trkpt>
      <trkpt lat="53.404668" lon="49.928982">
        <ele>153</ele>
        <time>2024-04-20T08:00:00Z</time>
        <extensions><cadence>100</cadence></extensions>
      </trkpt>
      <trkpt lat="53.405069" lon="49.929618">
        <ele>156</ele>
        <time>2024-04-20T08:06:00Z</time>
        <extensions><cadence>99</cadence></extensions>
      </trkpt>
      <trkpt lat="53.405451" lon="49.930266">
        <ele>158</ele>
        <time>2024-04-20T08:12:00Z</time>
        <extensions><cadence>98</cadence></extensions>
      </trkpt>
      <trkpt lat="53.405836" lon="49.930913">
        <ele>161</ele>
        <time>2024-04-20T08:18:00Z</time>
        <extensions><cadence>98</cadence></extensions>
      </trkpt>
      <trkpt lat="53.406241" lon="49.931545">
        <ele>165</ele>
        <time>2024-04-20T08:24:00Z</time>
        <extensions><cadence>99</cadence></extensions>
      </trkpt>
      <trkpt lat="53.406683" lon="49.932152">
        <ele>170</ele>
        <time>2024-04-20T08:30:00Z</time>
        <extensions><cadence>100</cadence></extensions>
      </trkpt>
      <trkpt lat="53.407169" lon="49.932728">
        <ele>176</ele>
        <time>2024-04-20T08:36:00Z</time>
        <extensions><cadence>100</cadence></extensions>
      </trkpt>
      <trkpt lat="53.407698" lon="49.933273">
        <ele>184</ele>
        <time>2024-04-20T08:42:00Z</time>
        <extensions><cadence>100</cadence></extensions>
      </trkpt>
      <trkpt lat="53.408260" lon="49.933796">
        <ele>191</ele>
        <time>2024-04-20T08:48:00Z</time>
        <extensions><cadence>100</cadence></extensions>
      </trkpt>
      <trkpt lat="53.408838" lon="49.934308">
        <ele>198</ele>
        <time>2024-04-20T08:54:00Z</time>
        <extensions><cadence>98</cadence></extensions>
      </trkpt>
    </trkseg>
  </trk>
</gpx>
